SL-3 R/B                
1 19046U 88032B   18089.53523053  .00000999  00000-0  78784-4 0  9998
2 19046  97.4887 132.5346 0037472  80.2791 280.2664 15.02391600615635
SL-16 R/B               
1 19120U 88039B   18089.47076736 -.00000153  00000-0 -49959-4 0  9998
2 19120  71.0122  80.0144 0019870 111.9069 248.4170 14.19182762547000
COSMOS 1953             
1 19210U 88050A   18088.57950526 -.00000021  00000-0 -34962-5 0  9992
2 19210  82.5149 116.6395 0013356  14.3262 345.8341 15.05527035620774
SL-8 R/B                
1 19257U 88053B   18089.34477064 -.00000035  00000-0 -29637-5 0  9991
2 19257  74.0496  50.4515 0021524 232.2159 235.7068 14.37393250559887
COSMOS 1975             
1 19573U 88093A   18089.03108868  .00000606  00000-0  41215-4 0  9992
2 19573  82.5192  68.8724 0015459  49.1823 311.0741 15.04428342602783
SL-14 R/B               
1 19574U 88093B   18089.51228122  .00000068  00000-0  54339-5 0  9996
2 19574  82.5316 237.3525 0020190 251.2773 173.6331 14.83258214591893
SL-16 R/B               
1 19650U 88102B   18089.51241593  .00000285  00000-0  16918-3 0  9999
2 19650  70.9983 133.0314 0012260 110.7651 249.4787 14.15766390516517
INTERCOSMOS 24          
1 20261U 89080A   18088.85146421  .00000224  00000-0  59134-4 0  9996
2 20261  82.6013 184.9047 1204710 157.9293 207.8562 12.55979026302233
SL-14 R/B               
1 20262U 89080C   18088.86256738  .00000017  00000-0  32047-5 0  9996
2 20262  82.5936 233.1130 1236644 325.3445  27.2727 12.48887761297379
DELTA 1 R/B             
1 20323U 89089B   18089.50586538  .00000048  00000-0  21887-4 0  9992
2 20323  97.1210 355.4814 0070262 260.1073  99.2187 14.48248677496161
DELTA 2 R/B(1)          
1 20453U 90008B   18088.86739209  .00001880  00000-0  10966-3 0  9992
2 20453  35.6258 350.7278 0285721  25.7513 335.7124 14.83995684490651
COSMOS 2058             
1 20465U 90010A   18089.18663330  .00000202  00000-0  14880-4 0  9992
2 20465  82.4906 332.8443 0016837  54.6674 305.6119 14.97694018528146
SL-14 R/B               
1 20466U 90010B   18089.51521163  .00000077  00000-0  67379-5 0  9999
2 20466  82.5002 104.7015 0021961 116.2599 244.0875 14.81318001519885
SL-14 R/B               
1 20511U 90018B   18089.45581711  .00000045  00000-0  28495-5 0  9997
2 20511  82.5240  47.5158 0016000 253.0728 246.7014 14.79975590514400
HST                     
1 20580U 90037B   18088.89534576  .00000520  00000-0  20942-4 0  9994
2 20580  28.4693 279.2606 0002740  10.2875 133.4276 15.09006874333484
SL-16 R/B               
1 20625U 90046B   18088.59896130  .00000186  00000-0  12144-3 0  9990
2 20625  70.9981 270.1106 0013212  26.0839 334.0946 14.14631605438202
COSMOS 2084             
1 20663U 90055A   18088.86710517  .00000117  00000-0  27932-4 0  9992
2 20663  62.7940 354.4749 0129435 118.0988 243.3261 14.91795578502411
SL-6 R/B(2)             
1 20666U 90055D   18088.93281990  .00000095  00000-0  26653-4 0  9995
2 20666  62.7839 272.3747 0106312 138.3243 222.6014 14.92102927504346
SL-8 R/B                
1 20775U 90078B   18089.23109560  .00003077  00000-0  15153-3 0  9992
2 20775  82.9317 173.4858 0583793 180.0804 180.0400 14.31863043389685
SL-8 R/B                
1 21088U 91006B   18089.56492792  .00000061  00000-0  46667-4 0  9995
2 21088  82.9448 167.3516 0021402 236.1225 239.6743 13.77075907365010
OKEAN-3                 
1 21397U 91039A   18088.51481192  .00000230  00000-0  19796-4 0  9991
2 21397  82.5223 227.3385 0017949   8.0387 352.1117 14.92642562452341
COSMOS 2151             
1 21422U 91042A   18089.19036679  .00000197  00000-0  16923-4 0  9996
2 21422  82.5017 334.2686 0015622  62.4238 297.8566 14.91936192451142
SL-14 R/B               
1 21423U 91042B   18089.37426245  .00000037  00000-0  17988-5 0  9995
2 21423  82.4941  53.9708 0018539  37.1456 323.1035 14.79726865444909
ERS-1                   
1 21574U 91050A   18088.83301681  .00000058  00000-0  33761-4 0  9996
2 21574  98.4964  36.9928 0032867 180.3456 179.7713 14.37636507398626
ARIANE 40 R/B           
1 21610U 91050F   18088.68218046  .00000018  00000-0  19576-4 0  9996
2 21610  98.5641 151.3784 0003776 152.4081   1.9503 14.40831299401226
INTERCOSMOS 25          
1 21819U 91086A   18088.89783629  .00000954  00000-0  18976-3 0  9994
2 21819  82.5815 251.4881 1518921 198.8691 154.9649 12.04824994146664
SL-14 R/B               
1 21820U 91086B   18089.24082704  .00000151  00000-0  24343-4 0  9997
2 21820  82.5592 309.7456 1576798  37.3982 332.6948 11.93372716140904
SL-8 R/B                
1 21876U 92008B   18089.54898647  .00000007  00000-0 -84429-5 0  9990
2 21876  82.9232 264.3649 0033899 316.3583 100.5177 13.75619456310751
SL-8 R/B                
1 21938U 92020B   18089.57482685  .00000004  00000-0 -12343-4 0  9999
2 21938  82.9303 147.8598 0030635 112.4098 355.1062 13.75268082302654
SL-16 R/B               
1 22220U 92076B   18088.85986137  .00000028  00000-0  37997-4 0  9993
2 22220  71.0009 177.9152 0013750 207.0860 273.6764 14.16430476311228
SL-16 R/B               
1 22285U 92093B   18089.11236693 -.00000162  00000-0 -58977-4 0  9990
2 22285  71.0235 332.4796 0002826  18.6834 341.4392 14.15023550302985
COSMOS 2228             
1 22286U 92094A   18089.55188505  .00000187  00000-0  17637-4 0  9991
2 22286  82.5174 104.0353 0019699 249.3621 110.5485 14.87919130365074
SL-16 R/B               
1 22566U 93016B   18089.52094875  .00000222  00000-0  13923-3 0  9993
2 22566  71.0076 185.8847 0008553  51.3298 308.8588 14.14954631291778
COSMOS 2242             
1 22626U 93024A   18089.52083724  .00000196  00000-0  18747-4 0  9990
2 22626  82.5206 131.8679 0017483 248.4794 111.4560 14.87782910348728
SL-16 R/B               
1 22803U 93059B   18089.17010124  .00000148  00000-0  97828-4 0  9994
2 22803  70.9927   6.8012 0018967 305.5994  54.3361 14.16787558268789
ARIANE 40 R/B           
1 22830U 93061H   18088.95519692 -.00000023  00000-0  86499-5 0  9992
2 22830  98.8657 115.6222 0011200 168.0305 192.1145 14.31413940278871
COSMOS 2278             
1 23087U 94023A   18089.54783975  .00000335  00000-0  20166-3 0  9991
2 23087  71.0517 120.4675 0007962 149.2317 210.9273 14.13763235234962
SL-16 R/B               
1 23088U 94023B   18089.43411694 -.00000317  00000-0 -13996-3 0  9991
2 23088  71.0016  41.2618 0003257 339.9367  20.1627 14.14665995236028
SL-16 R/B               
1 23343U 94074B   18089.57244514 -.00000003  00000-0  70555-5 0  9998
2 23343  98.1151 133.8901 0005893 226.5179 289.5338 14.76726874259099
SL-16 R/B               
1 23405U 94077B   18088.69326414 -.00000137  00000-0 -45735-4 0  9992
2 23405  70.9852 335.1231 0005002 259.2951 100.7608 14.15201606205651
ERS-2                   
1 23560U 95021A   18089.04614251  .00001235  00000-0  58657-4 0  9998
2 23560  98.5458 125.0181 0004664  65.2311 294.9406 15.21594663218842
ARIANE 40+ R/B          
1 23561U 95021B   18089.56634052  .00000041  00000-0  28925-4 0  9996
2 23561  98.7958 102.4206 0007869 127.0319 344.9433 14.37864324202403
SL-16 R/B               
1 23705U 95058B   18088.60310324 -.00000187  00000-0 -71635-4 0  9992
2 23705  71.0219 150.2133 0014343 230.4989 129.4866 14.15115389157562
SL-16 R/B               
1 24298U 96051B   18088.69033487 -.00000183  00000-0 -72674-4 0  9995
2 24298  70.8405 180.3660 0013941 124.1442 236.1003 14.12454246111877
ORBVIEW 2 (SEASTAR)     
1 24883U 97037A   18088.82249838  .00000040  00000-0  30184-4 0  9994
2 24883  98.5531 198.9520 0002112  12.6844 347.4393 14.33443313 92826
SL-16 R/B               
1 25400U 98043G   18088.76627581 -.00000013  00000-0  12563-4 0  9998
2 25400  98.5258  33.4042 0009857 174.3718 185.7574 14.25431708 25757
SL-16 R/B               
1 25407U 98045B   18089.22977482  .00000255  00000-0  15408-3 0  9994
2 25407  71.0114 160.3192 0006413 144.6959 215.4590 14.15774748 16672
ISS (ZARYA)             
1 25544U 98067A   18089.76559291  .00005746  00000-0  93797-4 0  9991
2 25544  51.6414  49.6619 0001511 277.6428 152.4201 15.54178448106326
SL-8 R/B                
1 25723U 99022C   18089.17050840  .00008217  00000-0  11090-3 0  9994
2 25723  48.4143  77.4472 0009363 333.2748  26.7715 15.58578631 51044
CZ-4B R/B               
1 25732U 99025C   18088.61827803 -.00000022  00000-0  11872-4 0  9992
2 25732  98.9963  98.8917 0037356   0.8085 142.9393 14.17646683977079
OKEAN-O                 
1 25860U 99039A   18088.98793083  .00000052  00000-0  15140-4 0  9995
2 25860  98.2133  83.2141 0000916  71.0311 289.0997 14.76538364  6004
SL-16 R/B               
1 25861U 99039B   18089.53378387  .00000017  00000-0  98443-5 0  9993
2 25861  98.1450  68.4156 0014536 237.9042 233.9312 14.78469079  8081
TERRA                   
1 25994U 99068A   18089.41975432  .00000237  00000-0  62741-4 0  9998
2 25994  98.2115 165.4127 0000893  60.8331 299.2964 14.57091997972353
ENVISAT                 
1 27386U 02009A   18089.52363811 -.00000013  00000-0  93252-5 0  9993
2 27386  98.1942 127.2540 0001126  76.7405 283.3904 14.37918360842220
IDEFIX & ARIANE 42P R/B 
1 27422U 02021B   18088.99691806 -.00000024  00000-0  65113-5 0  9993
2 27422  98.2513  78.7301 0013464 107.6978 252.5676 14.29260198827506
AQUA                    
1 27424U 02022A   18089.57466435  .00000084  00000-0  28724-4 0  9990
2 27424  98.2039  31.9799 0001353 352.4617 356.9158 14.57106490845977
CZ-4B R/B               
1 27432U 02024C   18089.53702299 -.00000025  00000-0  10829-4 0  9991
2 27432  99.0271  70.3014 0049671 303.4188 161.9080 14.14061142819262
MIDORI II (ADEOS-II)    
1 27597U 02056A   18089.48762611  .00000027  00000-0  28104-4 0  9992
2 27597  98.4124  52.5139 0001054 136.9144 223.2120 14.27340963796264
H-2A R/B                
1 27601U 02056E   18088.67917527  .00000054  00000-0  34639-4 0  9996
2 27601  98.3370 151.0529 0072588 167.6127 344.9888 14.31831343798662
